0 DELTA 1 DEB
1 21506U 75052GB  13280.47786003  .00000192  00000-0  59270-3 0  3398
2 21506 099.5970 144.1287 0180123 155.2177 325.2125 13.12000284 68471
0 DELTA 1 DEB
1 21506U 75052GB  13283.14699366  .00000571  00000-0  15685-2 0  3404
2 21506 099.5968 146.5362 0180223 148.9531 332.1235 13.11999710 68820
0 DELTA 1 DEB
1 21506U 75052GB  13287.49294222  .00000205  00000-0  62420-3 0  3424
2 21506 099.5960 150.4559 0180420 138.7760 338.9766 13.12007048 69395
0 DELTA 1 DEB
1 21506U 75052GB  13289.54037287  .00000281  00000-0  82047-3 0  3430
2 21506 099.5956 152.3025 0180517 133.9873 289.4731 13.12007777 69669
0 DELTA 1 DEB
1 21506U 75052GB  13292.07841556  .00000617  00000-0  16860-2 0  3447
2 21506 099.5954 154.5914 0180638 128.0551 037.2600 13.12007268 69995
0 DELTA 1 DEB
1 21506U 75052GB  13294.20340917  .00000493  00000-0  13646-2 0  3451
2 21506 099.5954 156.5077 0180729 123.0862 354.1070 13.12011052 70279
